{
  "norad_id": 57621,
  "name": "STARLINK-30150",
  "history": [
    {
      "epoch": "2026-03-28T17:36:42.794496Z",
      "apogee_km": 486.49911337143476,
      "perigee_km": 484.5409120257118,
      "latitude_deg": 6.210991352026682e-06,
      "longitude_deg": -116.69963415160126,
      "height_km": 485.2859438709838,
      "semi_major_axis_km": 6863.657012698573,
      "eccentricity": 0.00014265,
      "inclination_deg": 43.0048,
      "raan_deg": 333.6287,
      "arg_perigee_deg": 270.6677,
      "mean_anomaly_deg": 89.4011,
      "mean_motion_rev_day": 15.26755181
    },
    {
      "epoch": "2026-03-29T01:27:44.752896Z",
      "apogee_km": 486.7235667208306,
      "perigee_km": 484.28697371490307,
      "latitude_deg": -1.063250320959606e-05,
      "longitude_deg": 123.37427743052649,
      "height_km": 485.33233653569715,
      "semi_major_axis_km": 6863.642270217867,
      "eccentricity": 0.0001775,
      "inclination_deg": 43.0055,
      "raan_deg": 331.7832,
      "arg_perigee_deg": 267.6772,
      "mean_anomaly_deg": 92.3876,
      "mean_motion_rev_day": 15.267601
    },
    {
      "epoch": "2026-03-30T01:00:52.445952Z",
      "apogee_km": 486.1896409529436,
      "perigee_km": 484.8031870033201,
      "latitude_deg": 2.4700363590712558e-05,
      "longitude_deg": 123.58670933838641,
      "height_km": 485.4935691142565,
      "semi_major_axis_km": 6863.633413978132,
      "eccentricity": 0.000101,
      "inclination_deg": 43.0015,
      "raan_deg": 326.2449,
      "arg_perigee_deg": 251.4429,
      "mean_anomaly_deg": 108.6313,
      "mean_motion_rev_day": 15.26763055
    }
  ]
}